[{"OBJECT_NAME":"STARLINK-34559","OBJECT_ID":"2025-142L","EPOCH":"2026-03-05T03:47:16.809216","MEAN_MOTION":14.98300662,"ECCENTRICITY":0.0002857,"INCLINATION":70,"RA_OF_ASC_NODE":325.8135,"ARG_OF_PERICENTER":255.3482,"MEAN_ANOMALY":104.7361,"EPHEMERIS_TYPE":0,"CLASSIFICATION_TYPE":"U","NORAD_CAT_ID":64706,"ELEMENT_SET_NO":999,"REV_AT_EPOCH":3881,"BSTAR":-0.00019399,"MEAN_MOTION_DOT":-2.405e-5,"MEAN_MOTION_DDOT":0},{"OBJECT_NAME":"STARLINK-34316","OBJECT_ID":"2025-142M","EPOCH":"2026-03-05T03:53:15.115200","MEAN_MOTION":14.98357752,"ECCENTRICITY":0.0002803,"INCLINATION":70.0019,"RA_OF_ASC_NODE":325.8313,"ARG_OF_PERICENTER":271.9597,"MEAN_ANOMALY":88.1241,"EPHEMERIS_TYPE":0,"CLASSIFICATION_TYPE":"U","NORAD_CAT_ID":64707,"ELEMENT_SET_NO":999,"REV_AT_EPOCH":3897,"BSTAR":0.00075704,"MEAN_MOTION_DOT":8.958e-5,"MEAN_MOTION_DDOT":0},{"OBJECT_NAME":"STARLINK-34563","OBJECT_ID":"2025-142N","EPOCH":"2026-03-05T03:17:14.570880","MEAN_MOTION":14.98343284,"ECCENTRICITY":0.0003037,"INCLINATION":70.0036,"RA_OF_ASC_NODE":326.1431,"ARG_OF_PERICENTER":271.2573,"MEAN_ANOMALY":88.8238,"EPHEMERIS_TYPE":0,"CLASSIFICATION_TYPE":"U","NORAD_CAT_ID":64708,"ELEMENT_SET_NO":999,"REV_AT_EPOCH":3877,"BSTAR":0.00017723,"MEAN_MOTION_DOT":2.023e-5,"MEAN_MOTION_DDOT":0},{"OBJECT_NAME":"STARLINK-34499","OBJECT_ID":"2025-142P","EPOCH":"2026-03-05T03:41:14.756928","MEAN_MOTION":14.98331269,"ECCENTRICITY":0.0002571,"INCLINATION":70.0031,"RA_OF_ASC_NODE":325.7764,"ARG_OF_PERICENTER":265.7531,"MEAN_ANOMALY":94.3334,"EPHEMERIS_TYPE":0,"CLASSIFICATION_TYPE":"U","NORAD_CAT_ID":64709,"ELEMENT_SET_NO":999,"REV_AT_EPOCH":3878,"BSTAR":4.6721e-5,"MEAN_MOTION_DOT":4.65e-6,"MEAN_MOTION_DDOT":0},{"OBJECT_NAME":"STARLINK-34447","OBJECT_ID":"2025-142Q","EPOCH":"2026-03-05T02:28:37.246368","MEAN_MOTION":14.95911736,"ECCENTRICITY":0.0002138,"INCLINATION":70.0035,"RA_OF_ASC_NODE":325.991,"ARG_OF_PERICENTER":253.273,"MEAN_ANOMALY":106.8194,"EPHEMERIS_TYPE":0,"CLASSIFICATION_TYPE":"U","NORAD_CAT_ID":64710,"ELEMENT_SET_NO":999,"REV_AT_EPOCH":3896,"BSTAR":0.00013267,"MEAN_MOTION_DOT":1.397e-5,"MEAN_MOTION_DDOT":0},{"OBJECT_NAME":"STARLINK-34312","OBJECT_ID":"2025-142R","EPOCH":"2026-03-05T03:59:31.026912","MEAN_MOTION":14.98336164,"ECCENTRICITY":0.00024,"INCLINATION":70.002,"RA_OF_ASC_NODE":325.8422,"ARG_OF_PERICENTER":261.8596,"MEAN_ANOMALY":98.2291,"EPHEMERIS_TYPE":0,"CLASSIFICATION_TYPE":"U","NORAD_CAT_ID":64711,"ELEMENT_SET_NO":999,"REV_AT_EPOCH":3897,"BSTAR":0.00026672,"MEAN_MOTION_DOT":3.091e-5,"MEAN_MOTION_DDOT":0},{"OBJECT_NAME":"STARLINK-34515","OBJECT_ID":"2025-142S","EPOCH":"2026-03-05T03:29:14.579232","MEAN_MOTION":14.98536645,"ECCENTRICITY":0.0003125,"INCLINATION":70.0024,"RA_OF_ASC_NODE":325.7449,"ARG_OF_PERICENTER":275.4048,"MEAN_ANOMALY":84.6755,"EPHEMERIS_TYPE":0,"CLASSIFICATION_TYPE":"U","NORAD_CAT_ID":64712,"ELEMENT_SET_NO":999,"REV_AT_EPOCH":3878,"BSTAR":0.0033256,"MEAN_MOTION_DOT":0.00040029,"MEAN_MOTION_DDOT":0},{"OBJECT_NAME":"STARLINK-34583","OBJECT_ID":"2025-142T","EPOCH":"2026-03-05T03:05:13.343424","MEAN_MOTION":14.98335112,"ECCENTRICITY":0.0002448,"INCLINATION":70.0033,"RA_OF_ASC_NODE":326.0803,"ARG_OF_PERICENTER":268.0347,"MEAN_ANOMALY":92.0532,"EPHEMERIS_TYPE":0,"CLASSIFICATION_TYPE":"U","NORAD_CAT_ID":64713,"ELEMENT_SET_NO":999,"REV_AT_EPOCH":3877,"BSTAR":0.0003825,"MEAN_MOTION_DOT":4.474e-5,"MEAN_MOTION_DDOT":0},{"OBJECT_NAME":"STARLINK-34574","OBJECT_ID":"2025-142U","EPOCH":"2026-03-05T04:17:33.316512","MEAN_MOTION":14.98355084,"ECCENTRICITY":0.0002287,"INCLINATION":70.0016,"RA_OF_ASC_NODE":325.8862,"ARG_OF_PERICENTER":266.5155,"MEAN_ANOMALY":93.5743,"EPHEMERIS_TYPE":0,"CLASSIFICATION_TYPE":"U","NORAD_CAT_ID":64714,"ELEMENT_SET_NO":999,"REV_AT_EPOCH":3881,"BSTAR":0.00045243,"MEAN_MOTION_DOT":5.313e-5,"MEAN_MOTION_DDOT":0},{"OBJECT_NAME":"STARLINK-34533","OBJECT_ID":"2025-142V","EPOCH":"2026-03-05T03:59:16.854720","MEAN_MOTION":14.98336802,"ECCENTRICITY":0.0002342,"INCLINATION":70.0029,"RA_OF_ASC_NODE":325.8471,"ARG_OF_PERICENTER":262.8031,"MEAN_ANOMALY":97.2862,"EPHEMERIS_TYPE":0,"CLASSIFICATION_TYPE":"U","NORAD_CAT_ID":64715,"ELEMENT_SET_NO":999,"REV_AT_EPOCH":3878,"BSTAR":0.00028991,"MEAN_MOTION_DOT":3.368e-5,"MEAN_MOTION_DDOT":0},{"OBJECT_NAME":"STARLINK-34548","OBJECT_ID":"2025-142W","EPOCH":"2026-03-05T03:35:15.003744","MEAN_MOTION":14.98341287,"ECCENTRICITY":0.0002726,"INCLINATION":70.002,"RA_OF_ASC_NODE":325.7871,"ARG_OF_PERICENTER":270.0837,"MEAN_ANOMALY":90.001,"EPHEMERIS_TYPE":0,"CLASSIFICATION_TYPE":"U","NORAD_CAT_ID":64716,"ELEMENT_SET_NO":999,"REV_AT_EPOCH":3878,"BSTAR":0.00078842,"MEAN_MOTION_DOT":9.329e-5,"MEAN_MOTION_DDOT":0},{"OBJECT_NAME":"STARLINK-34568","OBJECT_ID":"2025-142X","EPOCH":"2026-03-05T02:35:11.374656","MEAN_MOTION":14.98339888,"ECCENTRICITY":0.0001547,"INCLINATION":70.0037,"RA_OF_ASC_NODE":326.0465,"ARG_OF_PERICENTER":245.4227,"MEAN_ANOMALY":114.6771,"EPHEMERIS_TYPE":0,"CLASSIFICATION_TYPE":"U","NORAD_CAT_ID":64717,"ELEMENT_SET_NO":999,"REV_AT_EPOCH":3880,"BSTAR":0.00040456,"MEAN_MOTION_DOT":4.739e-5,"MEAN_MOTION_DDOT":0},{"OBJECT_NAME":"STARLINK-34546","OBJECT_ID":"2025-142Y","EPOCH":"2026-03-05T04:00:01.999584","MEAN_MOTION":14.98314128,"ECCENTRICITY":0.0002608,"INCLINATION":70.0019,"RA_OF_ASC_NODE":325.6909,"ARG_OF_PERICENTER":276.1899,"MEAN_ANOMALY":221.7654,"EPHEMERIS_TYPE":0,"CLASSIFICATION_TYPE":"U","NORAD_CAT_ID":64718,"ELEMENT_SET_NO":999,"REV_AT_EPOCH":575,"BSTAR":0.004008,"MEAN_MOTION_DOT":0.00048039,"MEAN_MOTION_DDOT":0},{"OBJECT_NAME":"STARLINK-34577","OBJECT_ID":"2025-142Z","EPOCH":"2026-03-05T04:02:31.914816","MEAN_MOTION":14.95915031,"ECCENTRICITY":0.0002528,"INCLINATION":70.0014,"RA_OF_ASC_NODE":325.8203,"ARG_OF_PERICENTER":270.3222,"MEAN_ANOMALY":89.7646,"EPHEMERIS_TYPE":0,"CLASSIFICATION_TYPE":"U","NORAD_CAT_ID":64719,"ELEMENT_SET_NO":999,"REV_AT_EPOCH":3881,"BSTAR":0.00032745,"MEAN_MOTION_DOT":3.583e-5,"MEAN_MOTION_DDOT":0},{"OBJECT_NAME":"STARLINK-34572","OBJECT_ID":"2025-142AA","EPOCH":"2026-03-05T04:05:17.439072","MEAN_MOTION":14.98338102,"ECCENTRICITY":0.000236,"INCLINATION":70.0016,"RA_OF_ASC_NODE":325.8595,"ARG_OF_PERICENTER":268.7364,"MEAN_ANOMALY":91.3525,"EPHEMERIS_TYPE":0,"CLASSIFICATION_TYPE":"U","NORAD_CAT_ID":64720,"ELEMENT_SET_NO":999,"REV_AT_EPOCH":3897,"BSTAR":0.00037818,"MEAN_MOTION_DOT":4.423e-5,"MEAN_MOTION_DDOT":0},{"OBJECT_NAME":"STARLINK-34558","OBJECT_ID":"2025-142AB","EPOCH":"2026-03-05T04:05:31.700256","MEAN_MOTION":14.98339594,"ECCENTRICITY":0.0002758,"INCLINATION":70.0008,"RA_OF_ASC_NODE":325.8546,"ARG_OF_PERICENTER":275.2854,"MEAN_ANOMALY":84.7991,"EPHEMERIS_TYPE":0,"CLASSIFICATION_TYPE":"U","NORAD_CAT_ID":64721,"ELEMENT_SET_NO":999,"REV_AT_EPOCH":3878,"BSTAR":-0.00013777,"MEAN_MOTION_DOT":-1.737e-5,"MEAN_MOTION_DDOT":0},{"OBJECT_NAME":"STARLINK-34393","OBJECT_ID":"2025-144A","EPOCH":"2026-03-04T18:40:37.468416","MEAN_MOTION":15.30203551,"ECCENTRICITY":5.14e-5,"INCLINATION":53.1612,"RA_OF_ASC_NODE":203.5875,"ARG_OF_PERICENTER":103.4946,"MEAN_ANOMALY":256.6112,"EPHEMERIS_TYPE":0,"CLASSIFICATION_TYPE":"U","NORAD_CAT_ID":64724,"ELEMENT_SET_NO":999,"REV_AT_EPOCH":3897,"BSTAR":0.0012707,"MEAN_MOTION_DOT":0.00037469,"MEAN_MOTION_DDOT":0}]
