STARLINK-34559          
1 64706U 25142L   26064.15783344 -.00002405  00000+0 -19399-3 0  9996
2 64706  70.0000 325.8135 0002857 255.3482 104.7361 14.98300662 38811
STARLINK-34316          
1 64707U 25142M   26064.16198050  .00008958  00000+0  75704-3 0  9991
2 64707  70.0019 325.8313 0002803 271.9597  88.1241 14.98357752 38973
STARLINK-34563          
1 64708U 25142N   26064.13697420  .00002023  00000+0  17723-3 0  9998
2 64708  70.0036 326.1431 0003037 271.2573  88.8238 14.98343284 38771
STARLINK-34499          
1 64709U 25142P   26064.15364302  .00000465  00000+0  46721-4 0  9990
2 64709  70.0031 325.7764 0002571 265.7531  94.3334 14.98331269 38785
STARLINK-34447          
1 64710U 25142Q   26064.10320887  .00001397  00000+0  13267-3 0  9990
2 64710  70.0035 325.9910 0002138 253.2730 106.8194 14.95911736 38961
STARLINK-34312          
1 64711U 25142R   26064.16633133  .00003091  00000+0  26672-3 0  9995
2 64711  70.0020 325.8422 0002400 261.8596  98.2291 14.98336164 38972
STARLINK-34515          
1 64712U 25142S   26064.14530763  .00040029  00000+0  33256-2 0  9996
2 64712  70.0024 325.7449 0003125 275.4048  84.6755 14.98536645 38782
STARLINK-34583          
1 64713U 25142T   26064.12862666  .00004474  00000+0  38250-3 0  9999
2 64713  70.0033 326.0803 0002448 268.0347  92.0532 14.98335112 38779
STARLINK-34574          
1 64714U 25142U   26064.17885783  .00005313  00000+0  45243-3 0  9993
2 64714  70.0016 325.8862 0002287 266.5155  93.5743 14.98355084 38819
STARLINK-34533          
1 64715U 25142V   26064.16616730  .00003368  00000+0  28991-3 0  9996
2 64715  70.0029 325.8471 0002342 262.8031  97.2862 14.98336802 38780
STARLINK-34548          
1 64716U 25142W   26064.14947921  .00009329  00000+0  78842-3 0  9997
2 64716  70.0020 325.7871 0002726 270.0837  90.0010 14.98341287 38785
STARLINK-34568          
1 64717U 25142X   26064.10777054  .00004739  00000+0  40456-3 0  9992
2 64717  70.0037 326.0465 0001547 245.4227 114.6771 14.98339888 38800
STARLINK-34546          
1 64718U 25142Y   26064.16668981  .00048039  00000+0  40080-2 0  9990
2 64718  70.0019 325.6909 0002608 276.1899 221.7654 14.98314128  5752
STARLINK-34577          
1 64719U 25142Z   26064.16842494  .00003583  00000+0  32745-3 0  9999
2 64719  70.0014 325.8203 0002528 270.3222  89.7646 14.95915031 38817
STARLINK-34572          
1 64720U 25142AA  26064.17034073  .00004423  00000+0  37818-3 0  9998
2 64720  70.0016 325.8595 0002360 268.7364  91.3525 14.98338102 38970
STARLINK-34558          
1 64721U 25142AB  26064.17050579 -.00001737  00000+0 -13777-3 0  9993
2 64721  70.0008 325.8546 0002758 275.2854  84.7991 14.98339594 38784
STARLINK-34393          
1 64724U 25144A   26063.77821144  .00037469  00000+0  12707-2 0  9997
2 64724  53.1612 203.5875 0000514 103.4946 256.6112 15.30203551 38975
